[{"OBJECT_NAME":"STARLINK-3517","OBJECT_ID":"2022-016X","EPOCH":"2026-03-09T22:11:12.656256","MEAN_MOTION":15.08830912,"ECCENTRICITY":0.00013307,"INCLINATION":53.2188,"RA_OF_ASC_NODE":318.0698,"ARG_OF_PERICENTER":104.3955,"MEAN_ANOMALY":255.7185,"EPHEMERIS_TYPE":0,"CLASSIFICATION_TYPE":"U","NORAD_CAT_ID":51735,"ELEMENT_SET_NO":999,"REV_AT_EPOCH":22360,"BSTAR":-8.9011013e-5,"MEAN_MOTION_DOT":-1.704e-5,"MEAN_MOTION_DDOT":0},{"OBJECT_NAME":"FENGYUN 1C DEB","OBJECT_ID":"1999-025ARC","EPOCH":"2026-03-09T09:52:34.584960","MEAN_MOTION":14.8862073,"ECCENTRICITY":0.01277475,"INCLINATION":99.058,"RA_OF_ASC_NODE":51.7347,"ARG_OF_PERICENTER":19.4756,"MEAN_ANOMALY":341.1273,"EPHEMERIS_TYPE":0,"CLASSIFICATION_TYPE":"U","NORAD_CAT_ID":30694,"ELEMENT_SET_NO":999,"REV_AT_EPOCH":1384,"BSTAR":0.0015651053,"MEAN_MOTION_DOT":0.00016942,"MEAN_MOTION_DDOT":0}]
